*******************************************************************************
Ephemeris / WWW_USER Mon Mar 24 07:59:59 2025 Pasadena, USA      / Horizons    
*******************************************************************************
Target body name: (2018 UM1)                      {source: JPL#32}
Center body name: Earth (399)                     {source: DE441}
Center-site name: Mauna Kea
*******************************************************************************
Start time      : A.D. 2019-Jan-19 04:15:00.0000 UT      
Stop  time      : A.D. 2019-Jan-19 16:49:00.0000 UT      
Step-size       : 1 minutes
*******************************************************************************
Target pole/equ : undefined
Target radii    : undefined                                                    
Center geodetic : 204.5278, 19.8260847, 4.21024   {E-lon(deg),Lat(deg),Alt(km)}
Center cylindric: 204.5278, 6006.35451, 2151.0229 {E-lon(deg),Dxy(km),Dz(km)}
Center pole/equ : ITRF93                          {East-longitude positive}
Center radii    : 6378.137, 6378.137, 6356.752 km {Equator_a, b, pole_c}       
Target primary  : Sun
Vis. interferer : MOON (R_eq= 1737.400) km        {source: DE441}
Rel. light bend : Sun                             {source: DE441}
Rel. lght bnd GM: 1.3271E+11 km^3/s^2                                          
Small-body perts: Yes                             {source: SB441-N16}
Atmos refraction: NO (AIRLESS)
RA format       : HMS
Time format     : CAL 
Calendar mode   : Mixed Julian/Gregorian
RTS-only print  : NO       
EOP file        : eop.250321.p250617                                           
EOP coverage    : DATA-BASED 1962-JAN-20 TO 2025-MAR-21. PREDICTS-> 2025-JUN-16
Units conversion: 1 au= 149597870.700 km, c= 299792.458 km/s, 1 day= 86400.0 s 
Table cut-offs 1: Elevation (-90.0deg=NO ),Airmass (>38.000=NO), Daylight (YES)
Table cut-offs 2: Solar elongation (  0.0,180.0=NO ),Local Hour Angle( 0.0=NO )
Table cut-offs 3: RA/DEC angular rate (     0.0=NO )                           
*******************************************************************************
Initial IAU76/J2000 heliocentric ecliptic osculating elements (au, days, deg.):
  EPOCH=  2458316.5 ! 2018-Jul-17.00 (TDB)         Residual RMS= .13282        
   EC= .1732206266096905   QR= .9442469573310488   TP= 2458347.0882341689      
   OM= 261.2771090241423   W=  53.36399135060417   IN= 1.987806152492243       
  Equivalent ICRF heliocentric cartesian coordinates (au, au/d):
   X= 1.631856825953344E-01  Y=-8.815145891163165E-01  Z=-3.705958742828900E-01
  VX= 1.811434055353769E-02 VY= 4.114587132606022E-03 VZ= 2.434006136501484E-03
Asteroid physical parameters (km, seconds, rotational period in hours):        
   GM= n.a.                RAD= n.a.               ROTPER= n.a.                
   H= 23.64                G= .150                 B-V= n.a.                   
                           ALBEDO= n.a.            STYP= n.a.                  
*******************************************************************************
 Date__(UT)__HR:MN     R.A._________(ICRF)_________DEC
******************************************************
$$SOE
 2019-Jan-19 10:24  m  03 03 16.396826 +16 07 10.50214
 2019-Jan-19 10:25  m  03 03 16.487552 +16 07 10.77347
 2019-Jan-19 10:26  m  03 03 16.578296 +16 07 11.04477
 2019-Jan-19 10:27  m  03 03 16.669060 +16 07 11.31605
 2019-Jan-19 10:28  m  03 03 16.759844 +16 07 11.58730
 2019-Jan-19 10:29  m  03 03 16.850646 +16 07 11.85854
 2019-Jan-19 10:30  m  03 03 16.941468 +16 07 12.12975
 2019-Jan-19 10:31  m  03 03 17.032309 +16 07 12.40095
 2019-Jan-19 10:32  m  03 03 17.123169 +16 07 12.67212
 2019-Jan-19 10:33  m  03 03 17.214048 +16 07 12.94327
 2019-Jan-19 10:34  m  03 03 17.304947 +16 07 13.21441
 2019-Jan-19 10:35  m  03 03 17.395866 +16 07 13.48552
 2019-Jan-19 10:36  m  03 03 17.486803 +16 07 13.75662
 2019-Jan-19 10:37  m  03 03 17.577760 +16 07 14.02769
 2019-Jan-19 10:38  m  03 03 17.668737 +16 07 14.29875
 2019-Jan-19 10:39  m  03 03 17.759733 +16 07 14.56979
 2019-Jan-19 10:40  m  03 03 17.850748 +16 07 14.84082
 2019-Jan-19 10:41  m  03 03 17.941783 +16 07 15.11182
 2019-Jan-19 10:42  m  03 03 18.032838 +16 07 15.38281
 2019-Jan-19 10:43  m  03 03 18.123912 +16 07 15.65379
 2019-Jan-19 10:44  m  03 03 18.215005 +16 07 15.92474
 2019-Jan-19 10:45  m  03 03 18.306118 +16 07 16.19568
 2019-Jan-19 10:46  m  03 03 18.397251 +16 07 16.46661
 2019-Jan-19 10:47  m  03 03 18.488403 +16 07 16.73752
 2019-Jan-19 10:48  m  03 03 18.579575 +16 07 17.00841
 2019-Jan-19 10:49  m  03 03 18.670766 +16 07 17.27929
 2019-Jan-19 10:50  m  03 03 18.761977 +16 07 17.55016
 2019-Jan-19 10:51  m  03 03 18.853208 +16 07 17.82101
 2019-Jan-19 10:52  m  03 03 18.944459 +16 07 18.09185
 2019-Jan-19 10:53  m  03 03 19.035729 +16 07 18.36267
 2019-Jan-19 10:54  m  03 03 19.127019 +16 07 18.63349
 2019-Jan-19 10:55  m  03 03 19.218328 +16 07 18.90429
 2019-Jan-19 10:56  m  03 03 19.309657 +16 07 19.17507
 2019-Jan-19 10:57  m  03 03 19.401006 +16 07 19.44585
 2019-Jan-19 10:58  m  03 03 19.492375 +16 07 19.71661
 2019-Jan-19 10:59  m  03 03 19.583764 +16 07 19.98737
 2019-Jan-19 11:00  m  03 03 19.675172 +16 07 20.25811
 2019-Jan-19 11:01  m  03 03 19.766600 +16 07 20.52884
 2019-Jan-19 11:02  m  03 03 19.858048 +16 07 20.79957
 2019-Jan-19 11:03  m  03 03 19.949516 +16 07 21.07028
 2019-Jan-19 11:04  m  03 03 20.041003 +16 07 21.34098
 2019-Jan-19 11:05  m  03 03 20.132511 +16 07 21.61168
 2019-Jan-19 11:06  m  03 03 20.224038 +16 07 21.88236
 2019-Jan-19 11:07  m  03 03 20.315585 +16 07 22.15304
 2019-Jan-19 11:08  m  03 03 20.407152 +16 07 22.42371
 2019-Jan-19 11:09  m  03 03 20.498739 +16 07 22.69437
 2019-Jan-19 11:10  m  03 03 20.590346 +16 07 22.96502
 2019-Jan-19 11:11  m  03 03 20.681972 +16 07 23.23567
 2019-Jan-19 11:12  m  03 03 20.773619 +16 07 23.50631
 2019-Jan-19 11:13  m  03 03 20.865285 +16 07 23.77694
 2019-Jan-19 11:14  m  03 03 20.956971 +16 07 24.04757
 2019-Jan-19 11:15  m  03 03 21.048678 +16 07 24.31819
 2019-Jan-19 11:16  m  03 03 21.140404 +16 07 24.58881
 2019-Jan-19 11:17  m  03 03 21.232150 +16 07 24.85942
 2019-Jan-19 11:18  m  03 03 21.323916 +16 07 25.13003
 2019-Jan-19 11:19  m  03 03 21.415702 +16 07 25.40063
 2019-Jan-19 11:20  m  03 03 21.507507 +16 07 25.67123
 2019-Jan-19 11:21  m  03 03 21.599333 +16 07 25.94183
 2019-Jan-19 11:22  m  03 03 21.691179 +16 07 26.21242
 2019-Jan-19 11:23  m  03 03 21.783045 +16 07 26.48301
 2019-Jan-19 11:24  m  03 03 21.874930 +16 07 26.75360
 2019-Jan-19 11:25  m  03 03 21.966836 +16 07 27.02419
 2019-Jan-19 11:26  m  03 03 22.058762 +16 07 27.29477
 2019-Jan-19 11:27  m  03 03 22.150707 +16 07 27.56535
 2019-Jan-19 11:28  m  03 03 22.242673 +16 07 27.83593
 2019-Jan-19 11:29  m  03 03 22.334658 +16 07 28.10651
 2019-Jan-19 11:30  m  03 03 22.426664 +16 07 28.37709
 2019-Jan-19 11:31  m  03 03 22.518689 +16 07 28.64767
 2019-Jan-19 11:32  m  03 03 22.610734 +16 07 28.91825
 2019-Jan-19 11:33  m  03 03 22.702800 +16 07 29.18884
 2019-Jan-19 11:34  m  03 03 22.794885 +16 07 29.45942
 2019-Jan-19 11:35  m  03 03 22.886990 +16 07 29.73000
 2019-Jan-19 11:36  m  03 03 22.979116 +16 07 30.00059
 2019-Jan-19 11:37  m  03 03 23.071261 +16 07 30.27117
 2019-Jan-19 11:38  m  03 03 23.163426 +16 07 30.54176
 2019-Jan-19 11:39  m  03 03 23.255611 +16 07 30.81235
 2019-Jan-19 11:40  m  03 03 23.347816 +16 07 31.08295
 2019-Jan-19 11:41  m  03 03 23.440041 +16 07 31.35355
 2019-Jan-19 11:42  m  03 03 23.532286 +16 07 31.62415
 2019-Jan-19 11:43  m  03 03 23.624551 +16 07 31.89476
 2019-Jan-19 11:44  m  03 03 23.716836 +16 07 32.16537
 2019-Jan-19 11:45  m  03 03 23.809141 +16 07 32.43598
 2019-Jan-19 11:46  m  03 03 23.901465 +16 07 32.70660
 2019-Jan-19 11:47  m  03 03 23.993810 +16 07 32.97723
 2019-Jan-19 11:48  m  03 03 24.086175 +16 07 33.24786
 2019-Jan-19 11:49  m  03 03 24.178559 +16 07 33.51850
 2019-Jan-19 11:50  m  03 03 24.270963 +16 07 33.78914
 2019-Jan-19 11:51  m  03 03 24.363388 +16 07 34.05979
 2019-Jan-19 11:52  m  03 03 24.455832 +16 07 34.33045
 2019-Jan-19 11:53  m  03 03 24.548296 +16 07 34.60112
 2019-Jan-19 11:54  m  03 03 24.640780 +16 07 34.87179
 2019-Jan-19 11:55  m  03 03 24.733283 +16 07 35.14248
 2019-Jan-19 11:56  m  03 03 24.825807 +16 07 35.41317
 2019-Jan-19 11:57  m  03 03 24.918350 +16 07 35.68387
 2019-Jan-19 11:58  m  03 03 25.010914 +16 07 35.95458
 2019-Jan-19 11:59  m  03 03 25.103497 +16 07 36.22530
 2019-Jan-19 12:00  m  03 03 25.196100 +16 07 36.49602
 2019-Jan-19 12:01  m  03 03 25.288722 +16 07 36.76676
 2019-Jan-19 12:02  m  03 03 25.381365 +16 07 37.03751
 2019-Jan-19 12:03  m  03 03 25.474027 +16 07 37.30827
 2019-Jan-19 12:04  m  03 03 25.566709 +16 07 37.57905
 2019-Jan-19 12:05  m  03 03 25.659411 +16 07 37.84983
 2019-Jan-19 12:06  m  03 03 25.752133 +16 07 38.12063
 2019-Jan-19 12:07  m  03 03 25.844874 +16 07 38.39143
 2019-Jan-19 12:08  s  03 03 25.937635 +16 07 38.66226
 2019-Jan-19 12:09  m  03 03 26.030416 +16 07 38.93309
 2019-Jan-19 12:10  m  03 03 26.123216 +16 07 39.20394
 2019-Jan-19 12:11  m  03 03 26.216036 +16 07 39.47480
 2019-Jan-19 12:12  m  03 03 26.308876 +16 07 39.74567
 2019-Jan-19 12:13  m  03 03 26.401735 +16 07 40.01656
 2019-Jan-19 12:14  m  03 03 26.494614 +16 07 40.28747
 2019-Jan-19 12:15  m  03 03 26.587513 +16 07 40.55839
 2019-Jan-19 12:16  m  03 03 26.680431 +16 07 40.82932
 2019-Jan-19 12:17  m  03 03 26.773369 +16 07 41.10027
 2019-Jan-19 12:18  m  03 03 26.866326 +16 07 41.37124
 2019-Jan-19 12:19  m  03 03 26.959303 +16 07 41.64222
 2019-Jan-19 12:20  m  03 03 27.052299 +16 07 41.91322
 2019-Jan-19 12:21  m  03 03 27.145315 +16 07 42.18424
 2019-Jan-19 12:22  m  03 03 27.238351 +16 07 42.45527
 2019-Jan-19 12:23  m  03 03 27.331405 +16 07 42.72633
 2019-Jan-19 12:24  m  03 03 27.424480 +16 07 42.99740
 2019-Jan-19 12:25  m  03 03 27.517573 +16 07 43.26849
 2019-Jan-19 12:26  m  03 03 27.610687 +16 07 43.53959
